COSMOS 1933             
1 18958U 88020A   25360.86711909  .00004698  00000+0  23470-3 0  9991
2 18958  82.5138 322.9188 0006462  90.8291 269.3683 15.17226762 39187
SL-3 R/B                
1 19046U 88032B   25360.82874528  .00006006  00000+0  28834-3 0  9990
2 19046  97.5099 339.4538 0028049 125.4558 234.9300 15.18882523 41042
SL-16 R/B               
1 19120U 88039B   25360.69878631 -.00000104  00000+0 -26260-4 0  9991
2 19120  71.0126 222.8839 0019539  92.3959 267.9403 14.19599659948022
COSMOS 1953             
1 19210U 88050A   25351.75027580  .00004793  00000+0  17925-3 0  9993
2 19210  82.5093 240.5536 0013540  56.0210 304.2313 15.26995692 25270
SL-8 R/B                
1 19257U 88053B   25360.86535537  .00000263  00000+0  93910-4 0  9992
2 19257  74.0465 246.6865 0018972  85.4970 348.7051 14.38867711966127
COSMOS 1975             
1 19573U 88093A   25360.80825645  .00008567  00000+0  32459-3 0  9998
2 19573  82.5196 190.7426 0012965  68.8734 291.3889 15.26669652  8282
SL-14 R/B               
1 19574U 88093B   25360.79529551  .00000623  00000+0  69076-4 0  9995
2 19574  82.5318 110.4777 0019223 280.0307 194.6611 14.85564378990219
SL-16 R/B               
1 19650U 88102B   25360.86812148  .00000025  00000+0  36720-4 0  9992
2 19650  71.0007 304.7154 0012219 127.6709 232.5525 14.16142600916587
INTERCOSMOS 24          
1 20261U 89080A   25360.80591014  .00000759  00000+0  21428-3 0  9990
2 20261  82.6056 151.8082 1189021 101.9045 271.7600 12.59462015657621
SL-14 R/B               
1 20262U 89080C   25360.74517153  .00000327  00000+0  95357-4 0  9990
2 20262  82.5913 220.0295 1230377 351.5842   6.6169 12.50423971651030
DELTA 1 R/B             
1 20323U 89089B   25360.84947615  .00000381  00000+0  10327-3 0  9991
2 20323  97.0743 214.8502 0068983 354.0640   5.9733 14.50583525885174
ARIANE 40 R/B           
1 20443U 90005H   25360.70756644  .00000302  00000+0  10981-3 0  9998
2 20443  98.3226  58.4897 0011136  67.9179 292.3191 14.39808539882305
